[{"OBJECT_NAME":"STARLINK-5826","OBJECT_ID":"2023-028AT","EPOCH":"2026-03-09T18:27:48.359808","MEAN_MOTION":14.98361608,"ECCENTRICITY":0.00040009,"INCLINATION":69.9986,"RA_OF_ASC_NODE":204.4326,"ARG_OF_PERICENTER":275.9334,"MEAN_ANOMALY":84.1369,"EPHEMERIS_TYPE":0,"CLASSIFICATION_TYPE":"U","NORAD_CAT_ID":55782,"ELEMENT_SET_NO":999,"REV_AT_EPOCH":16703,"BSTAR":-7.5635032e-5,"MEAN_MOTION_DOT":-9.96e-6,"MEAN_MOTION_DDOT":0},{"OBJECT_NAME":"SATGUS","OBJECT_ID":"2025-009DJ","EPOCH":"2026-03-09T16:57:39.644640","MEAN_MOTION":14.99840473,"ECCENTRICITY":0.00056702,"INCLINATION":97.7097,"RA_OF_ASC_NODE":150.9679,"ARG_OF_PERICENTER":96.3538,"MEAN_ANOMALY":263.8332,"EPHEMERIS_TYPE":0,"CLASSIFICATION_TYPE":"U","NORAD_CAT_ID":62713,"ELEMENT_SET_NO":999,"REV_AT_EPOCH":6264,"BSTAR":0.00076063433,"MEAN_MOTION_DOT":9.37e-5,"MEAN_MOTION_DDOT":0}]
